NORAD_CAT_ID,OBJECT_NAME,OBJECT_TYPE,EPOCH,MEAN_MOTION,ECCENTRICITY,INCLINATION,RA_OF_ASC_NODE,ARG_OF_PERICENTER,MEAN_ANOMALY,BSTAR,MEAN_MOTION_DOT,MEAN_MOTION_DDOT,TLE_LINE0,TLE_LINE1,TLE_LINE2,SEMIMAJOR_AXIS,PERIOD,APOGEE,PERIGEE,DECAYED
50165.0,STARLINK-3298,PAYLOAD,2023-02-25 21:24:12,15.08860403,0.000132,53.2135,192.221,69.3514,290.762,0.001851,0.0002931,0.0,0 STARLINK-3298,1 50165U 21125K   23056.89180910  .00029310  00000-0  18510-2 0  9992,2 50165  53.2135 192.2210 0001320  69.3514 290.7620 15.08860403 69263,6917.818,95.436,540.596,538.77,0.0
50165.0,STARLINK-3298,PAYLOAD,2023-02-26 02:10:21,15.08850422,4.41e-05,53.2143,191.3291,78.2741,281.83,0.0010534,0.00016522,0.0,0 STARLINK-3298,1 50165U 21125K   23057.09052705  .00016522  00000-0  10534-2 0  9994,2 50165  53.2143 191.3291 0000441  78.2741 281.8300 15.08850422 66167,6917.849,95.437,540.019,539.408,0.0
50165.0,STARLINK-3298,PAYLOAD,2023-02-26 14:53:26,15.08872327,0.0001317,53.2139,188.949,77.4568,282.6572,0.0020428,0.00032402,0.0,0 STARLINK-3298,1 50165U 21125K   23057.62044449  .00032402  00000-0  20428-2 0  9997,2 50165  53.2139 188.9490 0001317  77.4568 282.6572 15.08872327 69370,6917.782,95.436,540.558,538.736,0.0
50165.0,STARLINK-3298,PAYLOAD,2023-02-27 02:01:08,15.08841617,8.89e-05,53.214,186.8671,120.5729,239.5351,-0.00017738,-3.11e-05,0.0,0 STARLINK-3298,1 50165U 21125K   23058.08412128 -.00003110  00000-0 -17738-3 0  9998,2 50165  53.2140 186.8671 0000889 120.5729 239.5351 15.08841617 66317,6917.875,95.437,540.355,539.125,0.0
50165.0,STARLINK-3298,PAYLOAD,2023-02-27 17:54:58,15.08928999,0.0001248,53.2154,183.8925,96.5202,263.5932,0.0069208,0.00111882,0.0,0 STARLINK-3298,1 50165U 21125K   23058.74651478  .00111882  00000-0  69208-2 0  9996,2 50165  53.2154 183.8925 0001248  96.5202 263.5932 15.08928999 66411,6917.608,95.432,540.337,538.61,0.0
50165.0,STARLINK-3298,PAYLOAD,2023-02-28 01:51:55,15.08864011,0.0001834,53.2145,182.4069,74.9671,285.1524,0.0017236,0.00027268,0.0,0 STARLINK-3298,1 50165U 21125K   23059.07772028  .00027268  00000-0  17236-2 0  9996,2 50165  53.2145 182.4069 0001834  74.9671 285.1524 15.08864011 66462,6917.807,95.436,540.941,538.403,0.0
50165.0,STARLINK-3298,PAYLOAD,2023-02-28 12:59:36,15.08859367,0.0001556,53.2157,180.3237,99.1138,261.003,0.0014466,0.00022822,0.0,0 STARLINK-3298,1 50165U 21125K   23059.54139688  .00022822  00000-0  14466-2 0  9990,2 50165  53.2157 180.3237 0001556  99.1138 261.0030 15.08859367 69665,6917.821,95.436,540.763,538.61,0.0
50165.0,STARLINK-3298,PAYLOAD,2023-02-28 14:34:59,15.08856536,0.0001469,53.2149,180.0275,93.1374,266.9786,0.0012392,0.00019498,0.0,0 STARLINK-3298,1 50165U 21125K   23059.60763672  .00019498  00000-0  12392-2 0  9994,2 50165  53.2149 180.0275 0001469  93.1374 266.9786 15.08856536 66545,6917.83,95.437,540.711,538.679,0.0
50165.0,STARLINK-3298,PAYLOAD,2023-02-28 19:21:08,15.08864444,0.0001466,53.2146,179.1343,93.3967,266.7193,0.0010963,0.00017214,0.0,0 STARLINK-3298,1 50165U 21125K   23059.80635279  .00017214  00000-0  10963-2 0  9993,2 50165  53.2146 179.1343 0001466  93.3967 266.7193 15.08864444 69702,6917.806,95.436,540.685,538.657,0.0
50165.0,STARLINK-3298,PAYLOAD,2023-03-01 11:15:01,15.08812639,8.84e-05,53.2155,176.1635,79.9003,280.2089,0.001115,0.00017489,0.0,0 STARLINK-3298,1 50165U 21125K   23060.46877249  .00017489  00000-0  11150-2 0  9995,2 50165  53.2155 176.1635 0000884  79.9003 280.2089 15.08812639 66674,6917.964,95.439,540.441,539.217,0.0
50165.0,STARLINK-3298,PAYLOAD,2023-03-01 17:36:35,15.08814679,0.0001216,53.2149,174.9734,85.0627,275.0504,0.0016011,0.00025268,0.0,0 STARLINK-3298,1 50165U 21125K   23060.73373948  .00025268  00000-0  16011-2 0  9997,2 50165  53.2149 174.9734 0001216  85.0627 275.0504 15.08814679 69845,6917.958,95.439,540.664,538.982,0.0
50165.0,STARLINK-3298,PAYLOAD,2023-03-02 12:41:12,15.08861852,0.0001205,53.2145,171.4052,79.9848,280.128,0.0018665,0.0002956,0.0,0 STARLINK-3298,1 50165U 21125K   23061.52861961  .00029560  00000-0  18665-2 0  9998,2 50165  53.2145 171.4052 0001205  79.9848 280.1280 15.08861852 69967,6917.814,95.436,540.512,538.845,0.0
50165.0,STARLINK-3298,PAYLOAD,2023-03-03 09:21:12,15.08862897,0.0001216,53.2142,167.5399,99.4438,260.6692,0.0018099,0.00028652,0.0,0 STARLINK-3298,1 50165U 21125K   23062.38973319  .00028652  00000-0  18099-2 0  9996,2 50165  53.2142 167.5399 0001216  99.4438 260.6692 15.08862897 66965,6917.81,95.436,540.517,538.834,0.0
50165.0,STARLINK-3298,PAYLOAD,2023-03-03 10:56:35,15.08864074,0.0001203,53.2143,167.2423,96.2206,263.8923,0.0019445,0.00030815,0.0,0 STARLINK-3298,1 50165U 21125K   23062.45597191  .00030815  00000-0  19445-2 0  9994,2 50165  53.2143 167.2423 0001203  96.2206 263.8923 15.08864074 70107,6917.807,95.436,540.504,538.84,0.0
50165.0,STARLINK-3298,PAYLOAD,2023-03-03 15:42:45,15.08879976,0.0001407,53.2151,166.3503,101.2869,258.8281,0.0026795,0.00042661,0.0,0 STARLINK-3298,1 50165U 21125K   23062.65468819  .00042661  00000-0  26795-2 0  9998,2 50165  53.2151 166.3503 0001407 101.2869 258.8281 15.08879976 70134,6917.758,95.435,540.597,538.65,0.0
50165.0,STARLINK-3298,PAYLOAD,2023-03-04 10:47:22,15.08861289,0.0001384,53.2147,162.7797,131.8313,228.2797,0.002674,0.00042551,0.0,0 STARLINK-3298,1 50165U 21125K   23063.44957105  .00042551  00000-0  26740-2 0  9995,2 50165  53.2147 162.7797 0001384 131.8313 228.2797 15.08861289 70255,6917.815,95.436,540.638,538.723,0.0
50165.0,STARLINK-3298,PAYLOAD,2023-03-04 15:33:32,15.08850134,0.000168,53.2146,161.8883,115.0636,245.0531,0.0012916,0.00020333,0.0,0 STARLINK-3298,1 50165U 21125K   23063.64829150  .00020333  00000-0  12916-2 0  9999,2 50165  53.2146 161.8883 0001680 115.0636 245.0531 15.08850134 67156,6917.849,95.437,540.877,538.552,0.0
50165.0,STARLINK-3298,PAYLOAD,2023-03-04 18:44:18,15.08859296,0.0001671,53.2139,161.2931,113.4195,246.6973,0.0015688,0.00024781,0.0,0 STARLINK-3298,1 50165U 21125K   23063.78076963  .00024781  00000-0  15688-2 0  9990,2 50165  53.2139 161.2931 0001671 113.4195 246.6973 15.08859296 70304,6917.821,95.436,540.842,538.53,0.0
50165.0,STARLINK-3298,PAYLOAD,2023-03-04 23:30:28,15.08831162,6.6e-05,53.2153,160.4056,109.2168,250.8896,-6.8711e-05,-1.381e-05,0.0,0 STARLINK-3298,1 50165U 21125K   23063.97949338 -.00001381  00000-0 -68711-4 0  9996,2 50165  53.2153 160.4056 0000660 109.2168 250.8896 15.08831162 67207,6917.907,95.438,540.229,539.316,0.0
50165.0,STARLINK-3298,PAYLOAD,2023-03-06 05:42:48,15.08855101,0.0001685,53.2149,154.7543,85.9582,274.1603,0.0013458,0.00021204,0.0,0 STARLINK-3298,1 50165U 21125K   23065.23806330  .00021204  00000-0  13458-2 0  9991,2 50165  53.2149 154.7543 0001685  85.9582 274.1603 15.08855101 67391,6917.834,95.437,540.865,538.534,0.0
50165.0,STARLINK-3298,PAYLOAD,2023-03-06 12:04:20,15.0887622,0.0002068,53.214,153.5665,79.7284,280.3941,0.0016349,0.00025853,0.0,0 STARLINK-3298,1 50165U 21125K   23065.50301818  .00025853  00000-0  16349-2 0  9998,2 50165  53.2140 153.5665 0002068  79.7284 280.3941 15.08876220 67434,6917.77,95.435,541.065,538.204,0.0
50165.0,STARLINK-3298,PAYLOAD,2023-03-07 08:44:21,15.08857276,0.0001531,53.2157,149.7021,120.0576,240.0568,0.0014683,0.00023168,0.0,0 STARLINK-3298,1 50165U 21125K   23066.36413584  .00023168  00000-0  14683-2 0  9993,2 50165  53.2157 149.7021 0001531 120.0576 240.0568 15.08857276 67565,6917.828,95.436,540.752,538.633,0.0
50165.0,STARLINK-3298,PAYLOAD,2023-03-07 16:41:16,15.08862409,0.0001175,53.2134,148.2125,107.5616,252.5505,0.00094246,0.00014752,0.0,0 STARLINK-3298,1 50165U 21125K   23066.69533236  .00014752  00000-0  94246-3 0  9999,2 50165  53.2134 148.2125 0001175 107.5616 252.5505 15.08862409 67617,6917.812,95.436,540.49,538.864,0.0
50165.0,STARLINK-3298,PAYLOAD,2023-03-08 14:56:41,15.08850166,0.0002159,53.2146,144.0438,130.0079,230.1102,0.0019767,0.00031321,0.0,0 STARLINK-3298,1 50165U 21125K   23067.62270103  .00031321  00000-0  19767-2 0  9999,2 50165  53.2146 144.0438 0002159 130.0079 230.1102 15.08850166 67755,6917.849,95.437,541.208,538.221,0.0
50165.0,STARLINK-3298,PAYLOAD,2023-03-09 11:36:41,15.08863997,0.0001762,53.2153,140.1774,120.4462,239.6704,0.0011892,0.00018701,0.0,0 STARLINK-3298,1 50165U 21125K   23068.48381670  .00018701  00000-0  11892-2 0  9994,2 50165  53.2153 140.1774 0001762 120.4462 239.6704 15.08863997 67883,6917.807,95.436,540.891,538.453,0.0
50165.0,STARLINK-3298,PAYLOAD,2023-03-09 21:09:00,15.08854491,0.0001692,53.2157,138.4004,131.3791,228.7347,0.0005462,8.419e-05,0.0,0 STARLINK-3298,1 50165U 21125K   23068.88125768  .00008419  00000-0  54620-3 0  9994,2 50165  53.2157 138.4004 0001692 131.3791 228.7347 15.08854491 71078,6917.836,95.437,540.872,538.531,0.0
50165.0,STARLINK-3298,PAYLOAD,2023-03-10 05:05:56,15.08849534,0.0002117,53.2167,136.9151,122.8749,237.2447,0.00066847,0.00010369,0.0,0 STARLINK-3298,1 50165U 21125K   23069.21245671  .00010369  00000-0  66847-3 0  9999,2 50165  53.2167 136.9151 0002117 122.8749 237.2447 15.08849534 67990,6917.851,95.437,541.181,538.252,0.0
50165.0,STARLINK-3298,PAYLOAD,2023-03-10 20:59:47,15.08851563,8.35e-05,53.2148,133.9365,125.2248,234.8823,0.00063706,9.869e-05,0.0,0 STARLINK-3298,1 50165U 21125K   23069.87485190  .00009869  00000-0  63706-3 0  9997,2 50165  53.2148 133.9365 0000835 125.2248 234.8823 15.08851563 71226,6917.845,95.437,540.288,539.132,0.0
50165.0,STARLINK-3298,PAYLOAD,2023-03-11 08:07:30,15.08817949,9.83e-05,53.2147,131.8552,106.5072,253.6028,-0.00027001,-4.58e-05,0.0,0 STARLINK-3298,1 50165U 21125K   23070.33854356 -.00004580  00000-0 -27001-3 0  9999,2 50165  53.2147 131.8552 0000983 106.5072 253.6028 15.08817949 68166,6917.948,95.439,540.493,539.133,0.0
50165.0,STARLINK-3298,PAYLOAD,2023-03-11 09:42:53,15.08819889,0.0001322,53.2146,131.5582,100.3154,259.7987,-0.00024257,-4.144e-05,0.0,0 STARLINK-3298,1 50165U 21125K   23070.40478481 -.00004144  00000-0 -24257-3 0  9994,2 50165  53.2146 131.5582 0001322 100.3154 259.7987 15.08819889 71302,6917.942,95.439,540.721,538.892,0.0
